GLOBALSTAR M068         
1 32266U 07048D   25239.01192150 -.00000045  00000+0  32799-3 0  9990
2 32266  51.9879  86.3583 0000665 346.4486 177.8348 12.62827374826506
GLOBALSTAR M079         
1 37188U 10054A   25239.20734186 -.00000089  00000+0  82222-4 0  9996
2 37188  52.0035 283.5929 0000651 103.8896 328.1512 12.62266362685422
GLOBALSTAR M074         
1 37189U 10054B   25239.24327544 -.00000090  00000+0  77133-4 0  9994
2 37189  52.0013 282.7967 0000455 130.4346 343.6679 12.62271033686035
GLOBALSTAR M076         
1 37190U 10054C   25239.08989723 -.00000078  00000+0  14627-3 0  9995
2 37190  52.0025 283.4403 0000672 121.8444 255.2632 12.62264993685737
GLOBALSTAR M077         
1 37191U 10054D   25239.25489072 -.00000114  00000+0 -56454-4 0  9994
2 37191  52.0048 239.8028 0000257  96.0518  18.0638 12.62323076686128
GLOBALSTAR M075         
1 37192U 10054E   25239.26524647 -.00000075  00000+0  15925-3 0  9996
2 37192  51.9969 325.1225 0000597 109.7481 285.0968 12.62266979684820
GLOBALSTAR M073         
1 37193U 10054F   25239.26054567 -.00000111  00000+0 -40394-4 0  9997
2 37193  52.0036 239.0086 0000426  97.5996 275.9696 12.62262178686816
GLOBALSTAR M083         
1 37739U 11033A   25239.22443359 -.00000092  00000+0  62966-4 0  9994
2 37739  51.9843 187.7520 0000552  57.1179  91.3756 12.62274931655827
GLOBALSTAR M088         
1 37740U 11033B   25239.04307536 -.00000085  00000+0  10534-3 0  9997
2 37740  52.0208  94.0184 0000725  66.0458  98.2596 12.62267520651340
GLOBALSTAR M091         
1 37741U 11033C   25239.21606193 -.00000108  00000+0 -25635-4 0  9994
2 37741  52.0002  56.8886 0000936  68.4704 103.5128 12.62269843652153
GLOBALSTAR M085         
1 37742U 11033D   25239.12352991 -.00000095  00000+0  51216-4 0  9997
2 37742  52.0153   8.2067 0000858  81.9097  89.2310 12.62264070652656
GLOBALSTAR M081         
1 37743U 11033E   25239.15024105 -.00000108  00000+0 -23621-4 0  9999
2 37743  51.9984  10.8975 0000950  94.9044  76.5114 12.62267645652802
GLOBALSTAR M089         
1 37744U 11033F   25239.23523970 -.00000081  00000+0  12647-3 0  9997
2 37744  51.9952 324.8553 0000678 132.6522 246.1326 12.62265905653668
GLOBALSTAR M084         
1 38040U 11080A   25239.27785876 -.00000086  00000+0  99089-4 0  9999
2 38040  51.9993 192.0483 0000308 112.9484  39.0763 12.62268253631645
GLOBALSTAR M080         
1 38041U 11080B   25239.24894866 -.00000098  00000+0  29812-4 0  9997
2 38041  52.0043 193.7535 0000584   5.6363 144.2082 12.62268462631768
GLOBALSTAR M082         
1 38042U 11080C   25239.18812859 -.00000075  00000+0  16128-3 0  9993
2 38042  52.0069 149.4073 0000800  29.3418 134.8959 12.62267925632466
GLOBALSTAR M092         
1 38043U 11080D   25239.28715171 -.00000111  00000+0 -41987-4 0  9998
2 38043  52.0068 239.4879 0000225  92.7537 281.0290 12.62265559630931
GLOBALSTAR M090         
1 38044U 11080E   25239.21424771 -.00000065  00000+0  21680-3 0  9999
2 38044  52.0119 143.1879 0000760  56.5123 106.6412 12.62261851632585
GLOBALSTAR M086         
1 38045U 11080F   25239.24270145 -.00000070  00000+0  18682-3 0  9991
2 38045  51.9891 143.5089 0001475 101.3902  74.3832 12.62276397632539
GLOBALSTAR M097         
1 39072U 13005A   25238.75597052 -.00000102  00000+0  84722-5 0  9991
2 39072  52.0049  59.6109 0000972  80.5060 279.5916 12.62265745579729
GLOBALSTAR M093         
1 39073U 13005B   25239.20499907 -.00000103  00000+0  55238-5 0  9994
2 39073  52.0111  51.4781 0001197  76.6825 283.4175 12.62263962579732
GLOBALSTAR M094         
1 39074U 13005C   25239.20489287 -.00000061  00000+0  23651-3 0  9990
2 39074  51.9981 325.8915 0000782  94.9034 265.1922 12.62269306581342
GLOBALSTAR M096         
1 39075U 13005D   25239.29717283 -.00000102  00000+0  99840-5 0  9991
2 39075  52.0098  14.1769 0000941  83.5264 276.5710 12.62266174580277
GLOBALSTAR M078         
1 39076U 13005E   25239.03344566 -.00000196  00000+0 -51565-3 0  9998
2 39076  51.9871  99.3958 0001034  18.3399 341.7504 12.62259530578865
GLOBALSTAR M095         
1 39077U 13005F   25239.05941137 -.00000080  00000+0  13162-3 0  9990
2 39077  52.0074  96.5025 0001152  49.4124 310.6843 12.62259662578721
GLOBALSTAR M087         
1 52888U 22064A   25239.07398284 -.00000120  00000+0 -90694-4 0  9993
2 52888  51.9971 237.8748 0000386  55.8511 304.2392 12.62300992153990
